{"display_name":"Περιφερειακή Ενότητα Ηλείας, Περιφέρεια Δυτικής Ελλάδας, Αποκεντρωμένη Διοίκηση Πελοποννήσου, Δυτικής Ελλάδας και Ιονίου, 271 31, Ελλάς","address":{"county":"Περιφερειακή Ενότητα Ηλείας","state_district":"Περιφέρεια Δυτικής Ελλάδας","ISO3166-2-lvl5":"GR-G","state":"Αποκεντρωμένη Διοίκηση Πελοποννήσου, Δυτικής Ελλάδας και Ιονίου","postcode":"271 31","country":"Ελλάς","country_code":"gr"},"osm_type":"way","osm_id":27443149,"type":"city","location":[21.443915638768523,37.67218135],"bbox":[21.4244832,37.6637753,21.4594901,37.6804842]}
{"name":"Itea","display_name":"Itea, Δήμος Δελφών, Περιφερειακή Ενότητα Φωκίδας, Περιφέρεια Στερεάς Ελλάδας, Αποκεντρωμένη Διοίκηση Θεσσαλίας - Στερεάς Ελλάδος, 332 00, Ελλάς","address":{"city":"Itea","municipality":"Δήμος Δελφών","county":"Περιφερειακή Ενότητα Φωκίδας","state_district":"Περιφέρεια Στερεάς Ελλάδας","ISO3166-2-lvl5":"GR-H","state":"Αποκεντρωμένη Διοίκηση Θεσσαλίας - Στερεάς Ελλάδος","postcode":"332 00","country":"Ελλάς","country_code":"gr"},"population":4362,"osm_type":"way","osm_id":606551036,"type":"city","location":[22.42548672533482,38.43264705],"bbox":[22.4168997,38.4264797,22.4349182,38.438824]}
{"name":"Ioannina","display_name":"Ioannina, Δήμος Ιωαννιτών, Περιφερειακή Ενότητα Ιωαννίνων, Περιφέρεια Ηπείρου, Αποκεντρωμένη Διοίκηση Ηπείρου - Δυτικής Μακεδονίας, Ελλάς","address":{"city":"Ioannina","municipality":"Δήμος Ιωαννιτών","county":"Περιφερειακή Ενότητα Ιωαννίνων","state_district":"Περιφέρεια Ηπείρου","ISO3166-2-lvl5":"GR-D","state":"Αποκεντρωμένη Διοίκηση Ηπείρου - Δυτικής Μακεδονίας","country":"Ελλάς","country_code":"gr"},"osm_type":"way","osm_id":1104513259,"type":"city","location":[20.84761251682211,39.664125049999996],"bbox":[20.8222308,39.638697,20.872368,39.6891682]}
{"name":"Κουμαριά","other_names":{"name:el":"Κουμαριά","name:en":"Koumaria","name:de":"Koumaria","name:fr":"Koumaria","name:mk":"Долјани"},"display_name":"Κουμαριά, Περιφερειακή Ενότητα Ημαθίας, Περιφέρεια Κεντρικής Μακεδονίας, Αποκεντρωμένη Διοίκηση Μακεδονίας - Θράκης, Ελλάς","address":{"village":"Κουμαριά","county":"Περιφερειακή Ενότητα Ημαθίας","state_district":"Περιφέρεια Κεντρικής Μακεδονίας","ISO3166-2-lvl5":"GR-B","state":"Αποκεντρωμένη Διοίκηση Μακεδονίας - Θράκης","country":"Ελλάς","country_code":"gr"},"population":170,"osm_type":"way","osm_id":136702489,"type":"city","location":[22.0880892,40.5172197],"bbox":[22.0846009,40.5150063,22.0930656,40.5209067]}
{"name":"Καστανιά","other_names":{"name:el":"Καστανιά","name:en":"Kastania","name:de":"Kastanéa","name:fr":"Kastanéa","name:mk":"Кастања","name:ru":"Кастанея","alt_name:mk":"Кастанија","alt:en":"Kastanéa"},"display_name":"Καστανιά, Περιφερειακή Ενότητα Ημαθίας, Περιφέρεια Κεντρικής Μακεδονίας, Αποκεντρωμένη Διοίκηση Μακεδονίας - Θράκης, Ελλάς","address":{"village":"Καστανιά","county":"Περιφερειακή Ενότητα Ημαθίας","state_district":"Περιφέρεια Κεντρικής Μακεδονίας","ISO3166-2-lvl5":"GR-B","state":"Αποκεντρωμένη Διοίκηση Μακεδονίας - Θράκης","country":"Ελλάς","country_code":"gr"},"population":85,"osm_type":"way","osm_id":136708186,"type":"city","location":[22.1210512,40.4073791],"bbox":[22.113553,40.4040768,22.1247654,40.4141869]}
{"name":"Κάτω Βέρμιο","other_names":{"name:el":"Κάτω Βέρμιο","name:en":"Kato Vermio","name:mk":"Долно Шел","alt_name":"Σέλι","name:bg":"Долно Шел","name:ru":"Като-Вермион"},"display_name":"Κάτω Βέρμιο, Περιφερειακή Ενότητα Ημαθίας, Περιφέρεια Κεντρικής Μακεδονίας, Αποκεντρωμένη Διοίκηση Μακεδονίας - Θράκης, Ελλάς","address":{"village":"Κάτω Βέρμιο","county":"Περιφερειακή Ενότητα Ημαθίας","state_district":"Περιφέρεια Κεντρικής Μακεδονίας","ISO3166-2-lvl5":"GR-B","state":"Αποκεντρωμένη Διοίκηση Μακεδονίας - Θράκης","country":"Ελλάς","country_code":"gr"},"osm_type":"way","osm_id":136702490,"type":"city","location":[22.0265307,40.5514382],"bbox":[22.0207613,40.5450479,22.0306134,40.5599438]}
{"name":"Λευκόπετρα","other_names":{"name:el":"Λευκόπετρα","name:en":"Lefkopetra","name:de":"Lefkopetra","name:fr":"Lefkopetra","name:mk":"Извор","name:ru":"Лефкопетра"},"display_name":"Λευκόπετρα, Περιφερειακή Ενότητα Ημαθίας, Περιφέρεια Κεντρικής Μακεδονίας, Αποκεντρωμένη Διοίκηση Μακεδονίας - Θράκης, Ελλάς","address":{"village":"Λευκόπετρα","county":"Περιφερειακή Ενότητα Ημαθίας","state_district":"Περιφέρεια Κεντρικής Μακεδονίας","ISO3166-2-lvl5":"GR-B","state":"Αποκεντρωμένη Διοίκηση Μακεδονίας - Θράκης","country":"Ελλάς","country_code":"gr"},"population":51,"osm_type":"way","osm_id":178657775,"type":"city","location":[22.1784782,40.4291643],"bbox":[22.1763378,40.4268405,22.1833572,40.4323837]}
{"display_name":"Περιφερειακή Ενότητα Ημαθίας, Περιφέρεια Κεντρικής Μακεδονίας, Αποκεντρωμένη Διοίκηση Μακεδονίας - Θράκης, Ελλάς","address":{"county":"Περιφερειακή Ενότητα Ημαθίας","state_district":"Περιφέρεια Κεντρικής Μακεδονίας","ISO3166-2-lvl5":"GR-B","state":"Αποκεντρωμένη Διοίκηση Μακεδονίας - Θράκης","country":"Ελλάς","country_code":"gr"},"osm_type":"way","osm_id":27574550,"type":"city","location":[22.179798574189054,40.49274135],"bbox":[22.1766678,40.4904747,22.182745,40.4952705]}
{"name":"Ράχη","other_names":{"name:el":"Ράχη","name:en":"Rachi","name:de":"Rachi","name:fr":"Rachi","name:mk":"Рахово","alt_name":"Ραχιά","alt:en":"Rahi"},"display_name":"Ράχη, Περιφερειακή Ενότητα Ημαθίας, Περιφέρεια Κεντρικής Μακεδονίας, Αποκεντρωμένη Διοίκηση Μακεδονίας - Θράκης, Ελλάς","address":{"village":"Ράχη","county":"Περιφερειακή Ενότητα Ημαθίας","state_district":"Περιφέρεια Κεντρικής Μακεδονίας","ISO3166-2-lvl5":"GR-B","state":"Αποκεντρωμένη Διοίκηση Μακεδονίας - Θράκης","country":"Ελλάς","country_code":"gr"},"population":570,"osm_type":"way","osm_id":27574552,"type":"city","location":[22.214781,40.484191],"bbox":[22.2113194,40.4805697,22.2184026,40.4890387]}
{"name":"Βεργίνα","other_names":{"name:el":"Βεργίνα","name:en":"Vergina","name:mk":"Кутлеш","int_name":"Vergina","name:ca":"Vergina","name:fr":"Vergina"},"display_name":"Βεργίνα, Περιφερειακή Ενότητα Ημαθίας, Περιφέρεια Κεντρικής Μακεδονίας, Αποκεντρωμένη Διοίκηση Μακεδονίας - Θράκης, Ελλάς","address":{"village":"Βεργίνα","county":"Περιφερειακή Ενότητα Ημαθίας","state_district":"Περιφέρεια Κεντρικής Μακεδονίας","ISO3166-2-lvl5":"GR-B","state":"Αποκεντρωμένη Διοίκηση Μακεδονίας - Θράκης","country":"Ελλάς","country_code":"gr"},"population":2000,"osm_type":"way","osm_id":27574544,"type":"city","location":[22.3172749,40.4871136],"bbox":[22.3076358,40.4802482,22.3238353,40.4943782]}
{"name":"Γεωργιανοί","other_names":{"name:el":"Γεωργιανοί","name:en":"Georgiani","name:de":"Georgiani","name:fr":"Georgiani","name:mk":"Топљани","name:ru":"Георгиани"},"display_name":"Γεωργιανοί, Περιφερειακή Ενότητα Ημαθίας, Περιφέρεια Κεντρικής Μακεδονίας, Αποκεντρωμένη Διοίκηση Μακεδονίας - Θράκης, Ελλάς","address":{"village":"Γεωργιανοί","county":"Περιφερειακή Ενότητα Ημαθίας","state_district":"Περιφέρεια Κεντρικής Μακεδονίας","ISO3166-2-lvl5":"GR-B","state":"Αποκεντρωμένη Διοίκηση Μακεδονίας - Θράκης","country":"Ελλάς","country_code":"gr"},"population":288,"osm_type":"way","osm_id":178656157,"type":"city","location":[22.1673827,40.4673759],"bbox":[22.1620363,40.4577236,22.1756673,40.473788]}
{"display_name":"Περιφερειακή Ενότητα Ημαθίας, Περιφέρεια Κεντρικής Μακεδονίας, Αποκεντρωμένη Διοίκηση Μακεδονίας - Θράκης, 590 33, Ελλάς","address":{"county":"Περιφερειακή Ενότητα Ημαθίας","state_district":"Περιφέρεια Κεντρικής Μακεδονίας","ISO3166-2-lvl5":"GR-B","state":"Αποκεντρωμένη Διοίκηση Μακεδονίας - Θράκης","postcode":"590 33","country":"Ελλάς","country_code":"gr"},"osm_type":"way","osm_id":173956486,"type":"city","location":[22.254528697521927,40.553475649999996],"bbox":[22.2329504,40.544194,22.2667078,40.5626507]}
{"name":"Κομνήνειο","display_name":"Κομνήνειο, Περιφερειακή Ενότητα Ημαθίας, Περιφέρεια Κεντρικής Μακεδονίας, Αποκεντρωμένη Διοίκηση Μακεδονίας - Θράκης, Ελλάς","address":{"city":"Κομνήνειο","county":"Περιφερειακή Ενότητα Ημαθίας","state_district":"Περιφέρεια Κεντρικής Μακεδονίας","ISO3166-2-lvl5":"GR-B","state":"Αποκεντρωμένη Διοίκηση Μακεδονίας - Θράκης","country":"Ελλάς","country_code":"gr"},"osm_type":"way","osm_id":178482824,"type":"city","location":[22.16273614679583,40.518017],"bbox":[22.1600354,40.5154835,22.1655527,40.5203262]}
{"name":"Βέροια","other_names":{"name:el":"Βέροια","name:en":"Veria"},"display_name":"Βέροια, Περιφερειακή Ενότητα Ημαθίας, Περιφέρεια Κεντρικής Μακεδονίας, Αποκεντρωμένη Διοίκηση Μακεδονίας - Θράκης, Ελλάς","address":{"city":"Βέροια","county":"Περιφερειακή Ενότητα Ημαθίας","state_district":"Περιφέρεια Κεντρικής Μακεδονίας","ISO3166-2-lvl5":"GR-B","state":"Αποκεντρωμένη Διοίκηση Μακεδονίας - Θράκης","country":"Ελλάς","country_code":"gr"},"osm_type":"way","osm_id":300260395,"type":"city","location":[22.204895320706317,40.526651349999995],"bbox":[22.1803236,40.5057369,22.2279872,40.5488729]}
{"name":"Βάθεια","other_names":{"name:el":"Βάθεια","name:en":"Vathia","name:fr":"Vathia","name:ru":"Ватиа","int_name":"Vathia"},"display_name":"Βάθεια, Φλομοχωρίου - Άλικας, Κοινότητα Βάθειας, Δημοτική Ενότητα Οιτύλου, Δήμος Ανατολικής Μάνης, Περιφερειακή Ενότητα Λακωνίας, Περιφέρεια Πελοποννήσου, Αποκεντρωμένη Διοίκηση Πελοποννήσου, Δυτικής Ελλάδας και Ιονίου, 230 71, Ελλάς","address":{"tourism":"Βάθεια","road":"Φλομοχωρίου - Άλικας","city_district":"Κοινότητα Βάθειας","city":"Δημοτική Ενότητα Οιτύλου","municipality":"Δήμος Ανατολικής Μάνης","county":"Περιφερειακή Ενότητα Λακωνίας","state_district":"Περιφέρεια Πελοποννήσου","ISO3166-2-lvl5":"GR-J","state":"Αποκεντρωμένη Διοίκηση Πελοποννήσου, Δυτικής Ελλάδας και Ιονίου","postcode":"230 71","country":"Ελλάς","country_code":"gr"},"osm_type":"node","osm_id":3797228621,"type":"attraction","location":[22.4668427,36.4534878],"bbox":[22.4667927,36.4534378,22.4668927,36.4535378]}
{"name":"Καλαμάτα","other_names":{"name:ar":"كالاماتا","name:ca":"Kalamata","name:de":"Kalamata","name:el":"Καλαμάτα","name:en":"Kalamata","name:es":"Kalamata","name:et":"Kalamáta","name:eu":"Kalamata","name:fa":"کالاماتا","name:fr":"Kalamata","name:hu":"Kalamáta","name:it":"Calamata","name:mk":"Каламата","name:nl":"Kalamáta","name:ru":"Каламата","name:ur":"کالاماتا","int_name":"Kalamata","name:pnb":"کالاماتا","old_name":"Καλάμαι"},"display_name":"Δήμος Καλαμάτας, Περιφερειακή Ενότητα Μεσσηνίας, Περιφέρεια Πελοποννήσου, Αποκεντρωμένη Διοίκηση Πελοποννήσου, Δυτικής Ελλάδας και Ιονίου, 24100, Ελλάς","address":{"city":"Δήμος Καλαμάτας","county":"Περιφερειακή Ενότητα Μεσσηνίας","state_district":"Περιφέρεια Πελοποννήσου","ISO3166-2-lvl5":"GR-J","state":"Αποκεντρωμένη Διοίκηση Πελοποννήσου, Δυτικής Ελλάδας και Ιονίου","postcode":"24100","country":"Ελλάς","country_code":"gr"},"population":57620,"osm_type":"node","osm_id":193699922,"type":"city","location":[22.110707,37.0372714],"bbox":[21.950707,36.8772714,22.270707,37.1972714]}
{"name":"Σπάρτη","other_names":{"name:ca":"Esparta","name:cs":"Sparta","name:de":"Sparta","name:el":"Σπάρτη","name:en":"Sparta","name:es":"Esparta","name:et":"Sparta","name:eu":"Esparta","name:fr":"Sparte","name:hr":"Sparta","name:hu":"Szpárti","name:it":"Sparta","name:mk":"Спарта","name:nl":"Sparta","name:ru":"Спарта","name:sk":"Sparta","int_name":"Sparti"},"display_name":"Sparta, Δήμος Σπάρτης, Περιφερειακή Ενότητα Λακωνίας, Περιφέρεια Πελοποννήσου, Αποκεντρωμένη Διοίκηση Πελοποννήσου, Δυτικής Ελλάδας και Ιονίου, 231 00, Ελλάς","address":{"city":"Sparta","municipality":"Δήμος Σπάρτης","county":"Περιφερειακή Ενότητα Λακωνίας","state_district":"Περιφέρεια Πελοποννήσου","ISO3166-2-lvl5":"GR-J","state":"Αποκεντρωμένη Διοίκηση Πελοποννήσου, Δυτικής Ελλάδας και Ιονίου","postcode":"231 00","country":"Ελλάς","country_code":"gr"},"population":19102,"osm_type":"node","osm_id":161658541,"type":"city","location":[22.4310282,37.0750742],"bbox":[22.2710282,36.9150742,22.5910282,37.2350742]}
{"name":"Πύργος","other_names":{"name:ca":"Pirgos","name:de":"Pyrgos","name:el":"Πύργος","name:en":"Pyrgos","name:et":"Pýrgos","name:eu":"Pyrgos","name:fr":"Pýrgos","name:hu":"Pírgosz","name:mk":"Пиргос","name:nl":"Pyrgos","name:ru":"Пиргос","int_name":"Pyrgos"},"display_name":"Δήμος Πύργου, Περιφερειακή Ενότητα Ηλείας, Περιφέρεια Δυτικής Ελλάδας, Αποκεντρωμένη Διοίκηση Πελοποννήσου, Δυτικής Ελλάδας και Ιονίου, 27100, Ελλάς","address":{"city":"Δήμος Πύργου","county":"Περιφερειακή Ενότητα Ηλείας","state_district":"Περιφέρεια Δυτικής Ελλάδας","ISO3166-2-lvl5":"GR-G","state":"Αποκεντρωμένη Διοίκηση Πελοποννήσου, Δυτικής Ελλάδας και Ιονίου","postcode":"27100","country":"Ελλάς","country_code":"gr"},"population":34902,"osm_type":"node","osm_id":193702230,"type":"city","location":[21.4392124,37.6722103],"bbox":[21.2792124,37.5122103,21.5992124,37.8322103]}
{"name":"Τρίπολη","other_names":{"name:bg":"Триполи","name:ca":"Trípoli","name:de":"Tripoli","name:el":"Τρίπολη","name:en":"Tripoli","name:es":"Trípoli","name:et":"Trípoli","name:fr":"Tripoli","name:hu":"Trípoli","name:mk":"Триполи","name:ru":"Триполис","name:sq":"Tripolica","name:sr":"Триполи","name:tr":"Tripoliçe","int_name":"Tripoli","old_name":"Τριπολιτσά","name:sr-Latn":"Tripoli"},"display_name":"Τρίπολη, Δημοτική Ενότητα Τρίπολης, Δήμος Τρίπολης, Περιφερειακή Ενότητα Αρκαδίας, Περιφέρεια Πελοποννήσου, Αποκεντρωμένη Διοίκηση Πελοποννήσου, Δυτικής Ελλάδας και Ιονίου, 221 00, Ελλάς","address":{"city":"Τρίπολη","municipality":"Δήμος Τρίπολης","county":"Περιφερειακή Ενότητα Αρκαδίας","state_district":"Περιφέρεια Πελοποννήσου","ISO3166-2-lvl5":"GR-J","state":"Αποκεντρωμένη Διοίκηση Πελοποννήσου, Δυτικής Ελλάδας και Ιονίου","postcode":"221 00","country":"Ελλάς","country_code":"gr"},"population":25520,"osm_type":"node","osm_id":154562740,"type":"city","location":[22.3724241,37.5102911],"bbox":[22.2124241,37.3502911,22.5324241,37.6702911]}
{"display_name":"Λαζαράτα - Καρυά, Κ. Ασπρογερακάτων, Δημοτική Ενότητα Σφακιωτών, Δήμος Λευκάδας, Περιφερειακή Ενότητα Λευκάδας, Περιφέρεια Ιονίων Νήσων, Αποκεντρωμένη Διοίκηση Πελοποννήσου, Δυτικής Ελλάδας και Ιονίου, 310 80, Ελλάς","address":{"road":"Λαζαράτα - Καρυά","city_district":"Κ. Ασπρογερακάτων","city":"Δημοτική Ενότητα Σφακιωτών","municipality":"Δήμος Λευκάδας","county":"Περιφερειακή Ενότητα Λευκάδας","state_district":"Περιφέρεια Ιονίων Νήσων","ISO3166-2-lvl5":"GR-F","state":"Αποκεντρωμένη Διοίκηση Πελοποννήσου, Δυτικής Ελλάδας και Ιονίου","postcode":"310 80","country":"Ελλάς","country_code":"gr"},"osm_type":"node","osm_id":9217284578,"type":"windmill","location":[20.662197,38.7767095],"bbox":[20.662147,38.7766595,20.662247,38.7767595]}
{"name":"Πρέβεζα","other_names":{"name:de":"Preveza","name:el":"Πρέβεζα","name:en":"Preveza","name:et":"Préveza","name:fr":"Preveza","name:hu":"Préveza","name:mk":"Превеза","name:ro":"Preveza","name:ru":"Превеза","name:sq":"Prevezë","name:sr":"Превеза","name:sr-Latn":"Preveza"},"display_name":"Πρέβεζα, Δήμος Πρέβεζας, Περιφερειακή Ενότητα Πρέβεζας, Περιφέρεια Ηπείρου, Αποκεντρωμένη Διοίκηση Ηπείρου - Δυτικής Μακεδονίας, 481 00, Ελλάς","address":{"city":"Πρέβεζα","municipality":"Δήμος Πρέβεζας","county":"Περιφερειακή Ενότητα Πρέβεζας","state_district":"Περιφέρεια Ηπείρου","ISO3166-2-lvl5":"GR-D","state":"Αποκεντρωμένη Διοίκηση Ηπείρου - Δυτικής Μακεδονίας","postcode":"481 00","country":"Ελλάς","country_code":"gr"},"population":19072,"osm_type":"node","osm_id":139648176,"type":"city","location":[20.7516209,38.9571673],"bbox":[20.5916209,38.7971673,20.9116209,39.1171673]}
{"name":"Άρτα","other_names":{"name:ca":"Arta","name:de":"Arta","name:el":"Άρτα","name:en":"Arta","name:et":"Árta","name:eu":"Arta","name:fr":"Arta","name:hu":"Arta","name:mk":"Aрта","name:ru":"Арта","name:sq":"Nartë","name:tr":"Narda"},"display_name":"Άρτα, Δήμος Αρταίων, Περιφερειακή Ενότητα Άρτας, Περιφέρεια Ηπείρου, Αποκεντρωμένη Διοίκηση Ηπείρου - Δυτικής Μακεδονίας, 471 00, Ελλάς","address":{"city":"Άρτα","municipality":"Δήμος Αρταίων","county":"Περιφερειακή Ενότητα Άρτας","state_district":"Περιφέρεια Ηπείρου","ISO3166-2-lvl5":"GR-D","state":"Αποκεντρωμένη Διοίκηση Ηπείρου - Δυτικής Μακεδονίας","postcode":"471 00","country":"Ελλάς","country_code":"gr"},"population":19435,"osm_type":"node","osm_id":2189143339,"type":"city","location":[20.9858503,39.161555],"bbox":[20.8258503,39.001555,21.1458503,39.321555]}
{"name":"Πάτρα","other_names":{"name:ar":"باتراس","name:bg":"Патра","name:ca":"Patres","name:cs":"Patras","name:de":"Patras","name:el":"Πάτρα","name:en":"Patras","name:es":"Pátra","name:et":"Pátra","name:fi":"Patras","name:fr":"Patras","name:hr":"Patras","name:hu":"Pátra","name:it":"Patrasso","name:ja":"パトラ","name:la":"Patrae","name:lt":"Patrai","name:mk":"Патра","name:nl":"Patras","name:pt":"Pátras","name:ru":"Патры","name:sq":"Patra","name:sr":"Патра","name:tr":"Balyabadra","name:zh":"帕特雷","int_name":"Patras","name:sr-Latn":"Patra"},"display_name":"Δήμος Πατρέων, Περιφερειακή Ενότητα Αχαΐας, Περιφέρεια Δυτικής Ελλάδας, Αποκεντρωμένη Διοίκηση Πελοποννήσου, Δυτικής Ελλάδας και Ιονίου, Ελλάς","address":{"city":"Δήμος Πατρέων","county":"Περιφερειακή Ενότητα Αχαΐας","state_district":"Περιφέρεια Δυτικής Ελλάδας","ISO3166-2-lvl5":"GR-G","state":"Αποκεντρωμένη Διοίκηση Πελοποννήσου, Δυτικής Ελλάδας και Ιονίου","country":"Ελλάς","country_code":"gr"},"population":300000,"osm_type":"node","osm_id":62221032,"type":"city","location":[21.7350847,38.246242],"bbox":[21.5750847,38.086242,21.8950847,38.406242]}
{"name":"Μεσολόγγι","other_names":{"name:ca":"Mesolongi","name:de":"Mesolongi","name:el":"Μεσολόγγι","name:en":"Mesolongi","name:et":"Mesolóngi","name:eu":"Mesolongi","name:fr":"Mesolongi","name:hu":"Meszolóngi","name:mk":"Месолонги","name:ru":"Месолонгион","alt_name":"Missolonghi","int_name":"Messolonghi"},"display_name":"Μεσολόγγι, Δημοτική Ενότητα Ιεράς Πόλεως Μεσολογγίου, Δήμος Ιεράς Πόλεως Μεσολογγίου, Περιφερειακή Ενότητα Αιτωλοακαρνανίας, Περιφέρεια Δυτικής Ελλάδας, Αποκεντρωμένη Διοίκηση Πελοποννήσου, Δυτικής Ελλάδας και Ιονίου, 302 00, Ελλάς","address":{"city":"Μεσολόγγι","municipality":"Δήμος Ιεράς Πόλεως Μεσολογγίου","county":"Περιφερειακή Ενότητα Αιτωλοακαρνανίας","state_district":"Περιφέρεια Δυτικής Ελλάδας","ISO3166-2-lvl5":"GR-G","state":"Αποκεντρωμένη Διοίκηση Πελοποννήσου, Δυτικής Ελλάδας και Ιονίου","postcode":"302 00","country":"Ελλάς","country_code":"gr"},"population":20000,"osm_type":"node","osm_id":135519334,"type":"city","location":[21.4283544,38.3686353],"bbox":[21.2683544,38.2086353,21.5883544,38.5286353]}
{"name":"Αγρίνιο","other_names":{"name:ca":"Agrínio","name:de":"Agrinio","name:el":"Αγρίνιο","name:en":"Agrinio","name:et":"Agrínio","name:eu":"Agrinio","name:fr":"Agrinio","name:hr":"Agrinio","name:hu":"Agrínio","name:lt":"Agrinijas","name:mk":"Агринио","name:ru":"Агринион","int_name":"Agrinio","old_name":"Βραχώρι","alt_name:ca":"Agrínion"},"display_name":"Αγρίνιο, Δημοτική Ενότητα Αγρινίου, Δήμος Αγρινίου, Περιφερειακή Ενότητα Αιτωλοακαρνανίας, Περιφέρεια Δυτικής Ελλάδας, Αποκεντρωμένη Διοίκηση Πελοποννήσου, Δυτικής Ελλάδας και Ιονίου, 301 00, Ελλάς","address":{"city":"Αγρίνιο","municipality":"Δήμος Αγρινίου","county":"Περιφερειακή Ενότητα Αιτωλοακαρνανίας","state_district":"Περιφέρεια Δυτικής Ελλάδας","ISO3166-2-lvl5":"GR-G","state":"Αποκεντρωμένη Διοίκηση Πελοποννήσου, Δυτικής Ελλάδας και Ιονίου","postcode":"301 00","country":"Ελλάς","country_code":"gr"},"population":54253,"osm_type":"node","osm_id":1584055372,"type":"city","location":[21.4094206,38.6248275],"bbox":[21.2494206,38.4648275,21.5694206,38.7848275]}
{"name":"Αίγιο","other_names":{"name:ca":"Ègio","name:de":"Egio","name:el":"Αίγιο","name:en":"Aigio","name:eu":"Aigio","name:fr":"Egio","name:hu":"Éijo","name:ru":"Эйон","alt_name:en":"Egio","old_name:ca":"Ègion"},"display_name":"Αίγιο, Δημοτική Ενότητα Αιγίου, Δήμος Αιγιαλείας, Περιφερειακή Ενότητα Αχαΐας, Περιφέρεια Δυτικής Ελλάδας, Αποκεντρωμένη Διοίκηση Πελοποννήσου, Δυτικής Ελλάδας και Ιονίου, 251 00, Ελλάς","address":{"city":"Αίγιο","municipality":"Δήμος Αιγιαλείας","county":"Περιφερειακή Ενότητα Αχαΐας","state_district":"Περιφέρεια Δυτικής Ελλάδας","ISO3166-2-lvl5":"GR-G","state":"Αποκεντρωμένη Διοίκηση Πελοποννήσου, Δυτικής Ελλάδας και Ιονίου","postcode":"251 00","country":"Ελλάς","country_code":"gr"},"population":21061,"osm_type":"node","osm_id":300808140,"type":"city","location":[22.0852909,38.2505699],"bbox":[21.9252909,38.0905699,22.2452909,38.4105699]}
{"name":"Λαμία","other_names":{"name:ca":"Làmia","name:de":"Lamia","name:el":"Λαμία","name:en":"Lamia","name:es":"Lamía","name:et":"Lamía","name:fi":"Lamia","name:fr":"Lamía","name:hu":"Lamía","name:mk":"Ламија","name:ro":"Lamia","name:ru":"Ламия","name:sr":"Ламија","int_name":"Lamia","old_name":"Boudonitza","name:sr-Latn":"Lamia"},"display_name":"Λαμία, Δημοτική Ενότητα Λαμιέων, Δήμος Λαμιέων, Περιφερειακή Ενότητα Φθιώτιδας, Περιφέρεια Στερεάς Ελλάδας, Αποκεντρωμένη Διοίκηση Θεσσαλίας - Στερεάς Ελλάδος, 351 00, Ελλάς","address":{"city":"Λαμία","municipality":"Δήμος Λαμιέων","county":"Περιφερειακή Ενότητα Φθιώτιδας","state_district":"Περιφέρεια Στερεάς Ελλάδας","ISO3166-2-lvl5":"GR-H","state":"Αποκεντρωμένη Διοίκηση Θεσσαλίας - Στερεάς Ελλάδος","postcode":"351 00","country":"Ελλάς","country_code":"gr"},"population":52006,"osm_type":"node","osm_id":286542728,"type":"city","location":[22.433582,38.8993832],"bbox":[22.273582,38.7393832,22.593582,39.0593832]}
{"name":"Καρδίτσα","other_names":{"name:ca":"Karditsa","name:de":"Karditsa","name:el":"Καρδίτσα","name:en":"Karditsa","name:et":"Kardítsa","name:eu":"Karditsa","name:fr":"Karditsa","name:hu":"Kardíca","name:mk":"Кардица","name:ro":"Kardița","name:ru":"Кардица","name:sq":"Kardicë"},"display_name":"Καρδίτσα, Δήμος Καρδίτσας, Περιφερειακή Ενότητα Καρδίτσας, Περιφέρεια Θεσσαλίας, Αποκεντρωμένη Διοίκηση Θεσσαλίας - Στερεάς Ελλάδος, 431 00, Ελλάς","address":{"city":"Καρδίτσα","municipality":"Δήμος Καρδίτσας","county":"Περιφερειακή Ενότητα Καρδίτσας","state_district":"Περιφέρεια Θεσσαλίας","ISO3166-2-lvl5":"GR-E","state":"Αποκεντρωμένη Διοίκηση Θεσσαλίας - Στερεάς Ελλάδος","postcode":"431 00","country":"Ελλάς","country_code":"gr"},"population":38554,"osm_type":"node","osm_id":130250802,"type":"city","location":[21.9287519,39.3660304],"bbox":[21.7687519,39.2060304,22.0887519,39.5260304]}
{"name":"Κέρκυρα","other_names":{"name:ar":"كورفو","name:ca":"Corfú","name:cs":"Korfu","name:de":"Korfu","name:el":"Κέρκυρα","name:en":"Corfu","name:es":"Corfú","name:et":"Kérkyra","name:fi":"Korfu","name:fr":"Corfou","name:hu":"Korfu","name:it":"Corfù","name:la":"Corcyra","name:lt":"Kerkyra","name:mk":"Крф","name:nl":"Korfoe","name:pl":"Korfu","name:pt":"Corfu","name:ro":"Corfu","name:ru":"Корфу","name:sk":"Korfu","name:sq":"Korfuz","name:sr":"Крф","name:sv":"Korfu","int_name":"Kerkyra","alt_name:fr":"Kérkyra;Corcyre","name:sr-Latn":"Krf"},"display_name":"Κέρκυρα, Δήμος Κεντρικής Κέρκυρας και Διαποντίων Νήσων, Περιφερειακή Ενότητα Κέρκυρας, Περιφέρεια Ιονίων Νήσων, Αποκεντρωμένη Διοίκηση Πελοποννήσου, Δυτικής Ελλάδας και Ιονίου, 491 00, Ελλάς","address":{"city":"Κέρκυρα","municipality":"Δήμος Κεντρικής Κέρκυρας και Διαποντίων Νήσων","county":"Περιφερειακή Ενότητα Κέρκυρας","state_district":"Περιφέρεια Ιονίων Νήσων","ISO3166-2-lvl5":"GR-F","state":"Αποκεντρωμένη Διοίκηση Πελοποννήσου, Δυτικής Ελλάδας και Ιονίου","postcode":"491 00","country":"Ελλάς","country_code":"gr"},"population":39487,"osm_type":"node","osm_id":1827940532,"type":"city","location":[19.9234355,39.623657],"bbox":[19.7634355,39.463657,20.0834355,39.783657]}
{"name":"Ιωάννινα","other_names":{"name:ar":"يانينة","name:be":"Яніна","name:bg":"Янина","name:ca":"Ioànnina","name:de":"Ioannina","name:el":"Ιωάννινα","name:en":"Ioannina","name:es":"Ioánina","name:et":"Ioánnina","name:eu":"Ioanina","name:fr":"Ioánnina","name:he":"יואנינה","name:hr":"Janjina","name:hu":"Joánina","name:it":"Giannina","name:ja":"ヨアニナ","name:ka":"იანინა","name:ko":"요안니나","name:lt":"Janina","name:mk":"Јанина","name:pl":"Janina","name:pt":"Janina","name:ro":"Ianina","name:ru":"Янина","name:sk":"Janina","name:sq":"Janinë","name:sr":"Јањина","name:tr":"Yanya","name:uk":"Яніна","int_name":"Ioannina","loc_name":"Γιάννενα","old_name":"Janina","reg_name":"Γιάννινα"},"display_name":"Ιωάννινα, Δήμος Ιωαννιτών, Περιφερειακή Ενότητα Ιωαννίνων, Περιφέρεια Ηπείρου, Αποκεντρωμένη Διοίκηση Ηπείρου - Δυτικής Μακεδονίας, 265 10, Ελλάς","address":{"city":"Ιωάννινα","municipality":"Δήμος Ιωαννιτών","county":"Περιφερειακή Ενότητα Ιωαννίνων","state_district":"Περιφέρεια Ηπείρου","ISO3166-2-lvl5":"GR-D","state":"Αποκεντρωμένη Διοίκηση Ηπείρου - Δυτικής Μακεδονίας","postcode":"265 10","country":"Ελλάς","country_code":"gr"},"population":89061,"osm_type":"node","osm_id":139314748,"type":"city","location":[20.8522784,39.6639818],"bbox":[20.6922784,39.5039818,21.0122784,39.8239818]}
{"name":"Τρίκαλα","other_names":{"name:bg":"Трикала","name:de":"Trikala","name:el":"Τρίκαλα","name:en":"Trikala","name:es":"Tríkala","name:et":"Tríkala","name:fr":"Trikala","name:hr":"Trikala","name:hu":"Tríkala","name:mk":"Трикала","name:ro":"Trikolj","name:ru":"Трикала","name:sq":"Tërhallë","name:sr":"Трикала","name:tr":"Tırhala","int_name":"Trikala","name:sr-Latn":"Trikala"},"display_name":"Δήμος Τρικκαίων, Περιφερειακή Ενότητα Τρικάλων, Περιφέρεια Θεσσαλίας, Αποκεντρωμένη Διοίκηση Θεσσαλίας - Στερεάς Ελλάδος, 42100, Ελλάς","address":{"city":"Δήμος Τρικκαίων","county":"Περιφερειακή Ενότητα Τρικάλων","state_district":"Περιφέρεια Θεσσαλίας","ISO3166-2-lvl5":"GR-E","state":"Αποκεντρωμένη Διοίκηση Θεσσαλίας - Στερεάς Ελλάδος","postcode":"42100","country":"Ελλάς","country_code":"gr"},"population":61653,"osm_type":"node","osm_id":130250597,"type":"city","location":[21.7678844,39.5560869],"bbox":[21.6078844,39.3960869,21.9278844,39.7160869]}
{"name":"Λάρισα","other_names":{"name:bg":"Лариса","name:ca":"Làrissa","name:de":"Larisa","name:el":"Λάρισα","name:en":"Larissa","name:es":"Lárisa","name:et":"Lárisa","name:fi":"Larissa","name:fr":"Larissa","name:hr":"Larisa","name:hu":"Lárisza","name:lt":"Larisa","name:mk":"Лариса","name:ml":"ലാരിസ","name:ru":"Лариса","name:sq":"Larisa","name:sr":"Лариса","name:tr":"Yenişehir","int_name":"Larissa","alt_name:tr":"Larissa","name:sr-Latn":"Larisa"},"display_name":"Λάρισα, Δημοτική Ενότητα Λαρισαίων, Δήμος Λαρισαίων, Περιφερειακή Ενότητα Λάρισας, Περιφέρεια Θεσσαλίας, Αποκεντρωμένη Διοίκηση Θεσσαλίας - Στερεάς Ελλάδος, 422 22, Ελλάς","address":{"city":"Λάρισα","municipality":"Δήμος Λαρισαίων","county":"Περιφερειακή Ενότητα Λάρισας","state_district":"Περιφέρεια Θεσσαλίας","ISO3166-2-lvl5":"GR-E","state":"Αποκεντρωμένη Διοίκηση Θεσσαλίας - Στερεάς Ελλάδος","postcode":"422 22","country":"Ελλάς","country_code":"gr"},"population":144651,"osm_type":"node","osm_id":57549546,"type":"city","location":[22.4160706,39.6383092],"bbox":[22.2560706,39.4783092,22.5760706,39.7983092]}
{"name":"Κοζάνη","other_names":{"name:bg":"Кожани","name:ca":"Kozani","name:de":"Kozani","name:el":"Κοζάνη","name:et":"Kozáni","name:eu":"Kozani","name:fr":"Kozani","name:hu":"Kozáni","name:lt":"Kozanė","name:mk":"Кожани","name:ru":"Козани","name:sq":"Kozhan","name:sr":"Кожани","name:tr":"Kozani","int_name":"Kozani","alt_name:tr":"Kozana"},"display_name":"Κοζάνη, Δήμος Κοζάνης, Περιφερειακή Ενότητα Κοζάνης, Περιφέρεια Δυτικής Μακεδονίας, Αποκεντρωμένη Διοίκηση Ηπείρου - Δυτικής Μακεδονίας, 501 00, Ελλάς","address":{"city":"Κοζάνη","municipality":"Δήμος Κοζάνης","county":"Περιφερειακή Ενότητα Κοζάνης","state_district":"Περιφέρεια Δυτικής Μακεδονίας","ISO3166-2-lvl5":"GR-C","state":"Αποκεντρωμένη Διοίκηση Ηπείρου - Δυτικής Μακεδονίας","postcode":"501 00","country":"Ελλάς","country_code":"gr"},"population":35242,"osm_type":"node","osm_id":130167065,"type":"city","location":[21.7883119,40.3007259],"bbox":[21.6283119,40.1407259,21.9483119,40.4607259]}
{"name":"Καστοριά","other_names":{"name:bg":"Костур","name:ca":"Kastorià","name:el":"Καστοριά","name:eu":"Kastoria","name:mk":"Костур","int_name":"Kastoria"},"display_name":"Καστοριά, Δήμος Καστοριάς, Περιφερειακή Ενότητα Καστοριάς, Περιφέρεια Δυτικής Μακεδονίας, Αποκεντρωμένη Διοίκηση Ηπείρου - Δυτικής Μακεδονίας, 521 00, Ελλάς","address":{"city":"Καστοριά","municipality":"Δήμος Καστοριάς","county":"Περιφερειακή Ενότητα Καστοριάς","state_district":"Περιφέρεια Δυτικής Μακεδονίας","ISO3166-2-lvl5":"GR-C","state":"Αποκεντρωμένη Διοίκηση Ηπείρου - Δυτικής Μακεδονίας","postcode":"521 00","country":"Ελλάς","country_code":"gr"},"population":13387,"osm_type":"node","osm_id":135541513,"type":"city","location":[21.2634954,40.5217946],"bbox":[21.1034954,40.3617946,21.4234954,40.6817946]}
{"name":"Βέροια","other_names":{"name:bg":"Бер","name:de":"Veria","name:el":"Βέροια","name:en":"Veria","name:es":"Véria","name:et":"Véroia","name:eu":"Veria","name:fr":"Véria","name:hu":"Veria","name:it":"Veria","name:la":"Beroea","name:lt":"Verija","name:mk":"Бер","name:pt":"Véria","name:ro":"Veria","name:ru":"Верия","name:sr":"Бер","name:tr":"Karaferye","int_name":"Veroia"},"display_name":"Δήμος Βέροιας, Περιφερειακή Ενότητα Ημαθίας, Περιφέρεια Κεντρικής Μακεδονίας, Αποκεντρωμένη Διοίκηση Μακεδονίας - Θράκης, 59131, Ελλάς","address":{"city":"Δήμος Βέροιας","county":"Περιφερειακή Ενότητα Ημαθίας","state_district":"Περιφέρεια Κεντρικής Μακεδονίας","ISO3166-2-lvl5":"GR-B","state":"Αποκεντρωμένη Διοίκηση Μακεδονίας - Θράκης","postcode":"59131","country":"Ελλάς","country_code":"gr"},"population":42794,"osm_type":"node","osm_id":1834381643,"type":"city","location":[22.2036834,40.5215342],"bbox":[22.0436834,40.3615342,22.3636834,40.6815342]}
{"name":"Φλώρινα","other_names":{"name:ar":"فلورينا","name:bg":"Лерин","name:ca":"Flórina","name:cu":"Лєринъ","name:de":"Florina","name:el":"Φλώρινα","name:en":"Florina","name:es":"Flórina","name:et":"Flórina","name:eu":"Florina","name:fa":"فلورینا","name:fi":"Flórina","name:fr":"Florina","name:he":"פלורינה","name:hr":"Florina","name:hu":"Lerin","name:it":"Florina","name:ja":"フロリナ","name:ko":"플로리나","name:la":"Florina","name:lt":"Florina","name:mk":"Лерин","name:nl":"Florina","name:nn":"Flórina","name:pl":"Florina","name:ro":"Florina","name:ru":"Флорина","name:sk":"Florina","name:sq":"Follorina","name:sr":"Лерин","name:sv":"Florina","name:tr":"Florina","name:uk":"Флорина","name:vi":"Florina","name:zh":"弗勞利納"},"display_name":"Φλώρινα, Δήμος Φλώρινας, Περιφερειακή Ενότητα Φλώρινας, Περιφέρεια Δυτικής Μακεδονίας, Αποκεντρωμένη Διοίκηση Ηπείρου - Δυτικής Μακεδονίας, 531 00, Ελλάς","address":{"city":"Φλώρινα","municipality":"Δήμος Φλώρινας","county":"Περιφερειακή Ενότητα Φλώρινας","state_district":"Περιφέρεια Δυτικής Μακεδονίας","ISO3166-2-lvl5":"GR-C","state":"Αποκεντρωμένη Διοίκηση Ηπείρου - Δυτικής Μακεδονίας","postcode":"531 00","country":"Ελλάς","country_code":"gr"},"population":14297,"osm_type":"node","osm_id":130170551,"type":"city","location":[21.4138858,40.7829027],"bbox":[21.2538858,40.6229027,21.5738858,40.9429027]}
{"name":"Έδεσσα","other_names":{"name:bg":"Воден","name:ca":"Edessa","name:de":"Edessa","name:el":"Έδεσσα","name:en":"Edessa","name:et":"Édessa","name:eu":"Edessa","name:fr":"Édessa","name:hu":"Édesza","name:lt":"Edesa","name:mk":"Воден","name:ru":"Эдеса","name:sr":"Воден","name:tr":"Vodina","old_name:ca":"Vodena"},"display_name":"Έδεσσα, Δήμος Έδεσσας, Περιφερειακή Ενότητα Πέλλας, Περιφέρεια Κεντρικής Μακεδονίας, Αποκεντρωμένη Διοίκηση Μακεδονίας - Θράκης, 582 00, Ελλάς","address":{"city":"Έδεσσα","municipality":"Δήμος Έδεσσας","county":"Περιφερειακή Ενότητα Πέλλας","state_district":"Περιφέρεια Κεντρικής Μακεδονίας","ISO3166-2-lvl5":"GR-B","state":"Αποκεντρωμένη Διοίκηση Μακεδονίας - Θράκης","postcode":"582 00","country":"Ελλάς","country_code":"gr"},"population":18253,"osm_type":"node","osm_id":130167081,"type":"city","location":[22.050117,40.8009492],"bbox":[21.890117,40.6409492,22.210117,40.9609492]}
{"name":"Γιαννιτσά","other_names":{"name:bg":"Енидже Вардар","name:ca":"Giannitsa","name:de":"Giannitsa","name:el":"Γιαννιτσά","name:en":"Giannitsa","name:et":"Giannitsá","name:eu":"Giannitsa","name:fr":"Giannitsá","name:hr":"Janica","name:hu":"Janicá","name:mk":"Пазар","name:pl":"Jenidze","name:ro":"Giannitsa","name:ru":"Яница","name:sr":"Пазар","name:tr":"Giannitsa","int_name":"Giannitsa","old_name":"Γενιτσά","alt_name:mk":"Ениџе Вардар"},"display_name":"Γιαννιτσά, Δήμος Πέλλας, Περιφερειακή Ενότητα Πέλλας, Περιφέρεια Κεντρικής Μακεδονίας, Αποκεντρωμένη Διοίκηση Μακεδονίας - Θράκης, 581 00, Ελλάς","address":{"city":"Γιαννιτσά","municipality":"Δήμος Πέλλας","county":"Περιφερειακή Ενότητα Πέλλας","state_district":"Περιφέρεια Κεντρικής Μακεδονίας","ISO3166-2-lvl5":"GR-B","state":"Αποκεντρωμένη Διοίκηση Μακεδονίας - Θράκης","postcode":"581 00","country":"Ελλάς","country_code":"gr"},"population":29647,"osm_type":"node","osm_id":130167098,"type":"city","location":[22.411477,40.79304],"bbox":[22.251477,40.63304,22.571477,40.95304]}
{"name":"Κύθηρα","other_names":{"name:el":"Κύθηρα","name:en":"Kythera","name:fr":"Cythére","int_name":"Kythira","alt_name:el":"Χώρα","alt_name:en":"Chora"},"display_name":"Κύθηρα, Σπυρίδωνος Στάη, Κοινότητα Κυθήρων, Δημοτική Ενότητα Κυθήρων, Δήμος Κυθήρων, Περιφερειακή Ενότητα Νήσων, Περιφέρεια Αττικής, Αποκεντρωμένη Διοίκηση Αττικής, 801 00, Ελλάς","address":{"tourism":"Κύθηρα","road":"Σπυρίδωνος Στάη","city_district":"Κοινότητα Κυθήρων","city":"Δημοτική Ενότητα Κυθήρων","municipality":"Δήμος Κυθήρων","county":"Περιφερειακή Ενότητα Νήσων","state_district":"Περιφέρεια Αττικής","ISO3166-2-lvl5":"GR-I","state":"Αποκεντρωμένη Διοίκηση Αττικής","postcode":"801 00","country":"Ελλάς","country_code":"gr"},"population":267,"osm_type":"node","osm_id":352908847,"type":"attraction","location":[22.9872796,36.1497593],"bbox":[22.9872296,36.1497093,22.9873296,36.1498093]}
{"name":"Ρέθυμνο","other_names":{"name:ar":"ريثيمنو","name:de":"Rethymno","name:el":"Ρέθυμνο","name:en":"Rethymno","name:es":"Rétino","name:et":"Réthymno","name:fr":"Réthymnon","name:hu":"Réthimno","name:it":"Rethymno","name:lt":"Retimnas","name:mk":"Ретимно","name:nl":"Rethimnon","name:pl":"Retimno","name:ru":"Ретимнон","name:tr":"Resmo"},"display_name":"Ρέθυμνο, Δήμος Ρεθύμνης, Περιφερειακή Ενότητα Ρεθύμνης, Περιφέρεια Κρήτης, Αποκεντρωμένη Διοίκηση Κρήτης, 741 31, Ελλάς","address":{"city":"Ρέθυμνο","municipality":"Δήμος Ρεθύμνης","county":"Περιφερειακή Ενότητα Ρεθύμνης","state_district":"Περιφέρεια Κρήτης","ISO3166-2-lvl5":"GR-M","state":"Αποκεντρωμένη Διοίκηση Κρήτης","postcode":"741 31","country":"Ελλάς","country_code":"gr"},"population":29000,"osm_type":"node","osm_id":31376614,"type":"city","location":[24.4736079,35.3676472],"bbox":[24.3136079,35.2076472,24.6336079,35.5276472]}
{"name":"Χανιά","other_names":{"name:ar":"خانية","name:de":"Chania","name:el":"Χανιά","name:en":"Chania","name:eo":"Ĥanio","name:es":"La Canea","name:et":"Chaniá","name:fa":"خانیا","name:fi":"Hania","name:fr":"La Canée","name:he":"חאניה","name:hu":"Haniá","name:it":"Chania","name:ja":"ハニア","name:ko":"하니아","name:lt":"Chanija","name:mk":"Хања","name:nl":"Chania","name:ru":"Ханья","name:tr":"Hanya","name:zh":"干尼亞","int_name":"Chania","alt_name:ar":"خانيا","alt_name:fi":"Chaniá"},"display_name":"Χανιά, Δήμος Χανίων, Περιφερειακή Ενότητα Χανίων, Περιφέρεια Κρήτης, Αποκεντρωμένη Διοίκηση Κρήτης, 731 35, Ελλάς","address":{"city":"Χανιά","municipality":"Δήμος Χανίων","county":"Περιφερειακή Ενότητα Χανίων","state_district":"Περιφέρεια Κρήτης","ISO3166-2-lvl5":"GR-M","state":"Αποκεντρωμένη Διοίκηση Κρήτης","postcode":"731 35","country":"Ελλάς","country_code":"gr"},"population":53910,"osm_type":"node","osm_id":31376615,"type":"city","location":[24.0191544,35.5120831],"bbox":[23.8591544,35.3520831,24.1791544,35.6720831]}
{"name":"Ηράκλειο","other_names":{"name:ar":"كاندية","name:bg":"Ираклио","name:ca":"Càndia","name:cs":"Iraklion","name:da":"Iraklion","name:de":"Heraklion","name:el":"Ηράκλειο","name:en":"Heraklion","name:eo":"Iraklion","name:es":"Heraclión","name:et":"Irákleion","name:fi":"Heraklion","name:fr":"Héraklion","name:he":"הרקליון","name:hr":"Heraklion","name:hu":"Iráklio","name:ja":"イラクリオン","name:ku":"Herakliyon","name:lt":"Heraklionas","name:mk":"Ираклион","name:ml":"ഹെരാക്ലിയോൺ","name:pl":"Heraklion","name:ru":"Ираклион","name:sq":"Iraklioni","name:sr":"Ираклион","name:sv":"Heraklion","name:tr":"Kandiye","name:zh":"伊拉克利翁","name:grc":"Ἡράκλειον","old_name":"Χάνδακας;Κάντια","alt_name:ar":"إيراكليو;هيراكليون","alt_name:ca":"Iràklion","alt_name:cs":"Hérakleion","alt_name:de":"Heraklion","alt_name:hu":"Hérakleion","old_name:en":"Candia","name:sr-Latn":"Heraklion","old_name:grc":"Χάνδακας;Κάντια","official_name":"Ηράκλειον","official_name:de":"Iraklion","official_name:en":"Iraklion","official_name:es":"Heraclión","official_name:grc":"Ἡράκλειον"},"display_name":"Ηράκλειο, Δημοτική Ενότητα Ηρακλείου, Δήμος Ηρακλείου, Περιφερειακή Ενότητα Ηρακλείου, Περιφέρεια Κρήτης, Αποκεντρωμένη Διοίκηση Κρήτης, 712 02, Ελλάς","address":{"city":"Ηράκλειο","municipality":"Δήμος Ηρακλείου","county":"Περιφερειακή Ενότητα Ηρακλείου","state_district":"Περιφέρεια Κρήτης","ISO3166-2-lvl5":"GR-M","state":"Αποκεντρωμένη Διοίκηση Κρήτης","postcode":"712 02","country":"Ελλάς","country_code":"gr"},"population":140730,"osm_type":"node","osm_id":29438069,"type":"city","location":[25.1332843,35.33908],"bbox":[24.9732843,35.17908,25.2932843,35.49908]}
{"name":"Άργος","other_names":{"name:ca":"Argos","name:de":"Argos","name:el":"Άργος","name:en":"Argos","name:et":"Árgos","name:eu":"Argos","name:fr":"Argos","name:hu":"Argosz","name:lt":"Argas","name:mk":"Аргос","name:nl":"Argos","name:ru":"Аргос"},"display_name":"Άργος, Δημοτική Ενότητα Άργους, Δήμος Άργους - Μυκηνών, Περιφερειακή Ενότητα Αργολίδος, Περιφέρεια Πελοποννήσου, Αποκεντρωμένη Διοίκηση Πελοποννήσου, Δυτικής Ελλάδας και Ιονίου, 212 00, Ελλάς","address":{"city":"Άργος","municipality":"Δήμος Άργους - Μυκηνών","county":"Περιφερειακή Ενότητα Αργολίδος","state_district":"Περιφέρεια Πελοποννήσου","ISO3166-2-lvl5":"GR-J","state":"Αποκεντρωμένη Διοίκηση Πελοποννήσου, Δυτικής Ελλάδας και Ιονίου","postcode":"212 00","country":"Ελλάς","country_code":"gr"},"population":22209,"osm_type":"node","osm_id":286519134,"type":"city","location":[22.7285084,37.6349668],"bbox":[22.5685084,37.4749668,22.8885084,37.7949668]}
{"name":"Κόρινθος","other_names":{"name:ca":"Corint","name:de":"Korinth","name:el":"Κόρινθος","name:en":"Corinth","name:es":"Corinto","name:et":"Kórinthos","name:eu":"Korinto","name:fi":"Korintti","name:fr":"Corinthe","name:hr":"Korint","name:hu":"Korinthosz","name:it":"Corinto","name:ku":"Korînt","name:mi":"Koriniti","name:mk":"Коринт","name:nl":"Korinthe","name:oc":"Corint","name:ru":"Коринф","name:sk":"Korint","name:sq":"Korinti","old_name:ca":"Èfira"},"display_name":"Κόρινθος, Δημοτική Ενότητα Κορινθίων, Δήμος Κορινθίων, Περιφερειακή Ενότητα Κορινθίας, Περιφέρεια Πελοποννήσου, Αποκεντρωμένη Διοίκηση Πελοποννήσου, Δυτικής Ελλάδας και Ιονίου, 201 00, Ελλάς","address":{"city":"Κόρινθος","municipality":"Δήμος Κορινθίων","county":"Περιφερειακή Ενότητα Κορινθίας","state_district":"Περιφέρεια Πελοποννήσου","ISO3166-2-lvl5":"GR-J","state":"Αποκεντρωμένη Διοίκηση Πελοποννήσου, Δυτικής Ελλάδας και Ιονίου","postcode":"201 00","country":"Ελλάς","country_code":"gr"},"population":29787,"osm_type":"node","osm_id":161650096,"type":"city","location":[22.9273768,37.9385413],"bbox":[22.7673768,37.7785413,23.0873768,38.0985413]}
{"name":"Πειραιάς","other_names":{"name:bg":"Пирея","name:ca":"el Pireu","name:cs":"Pireus","name:da":"Piræus","name:de":"Piräus","name:el":"Πειραιάς","name:en":"Piraeus","name:es":"El Pireo","name:et":"Pireus","name:fr":"Le Pirée","name:he":"פיראוס","name:hr":"Pireus","name:hu":"Pireusz","name:it":"Pireo","name:lb":"Piräus","name:lt":"Pirėjas","name:mk":"Пиреј","name:nl":"Piraeus","name:pl":"Pireus","name:ru":"Пирей","name:sk":"Pireus","name:sl":"Pirej","name:sq":"Pire","name:sv":"Pireus","name:tr":"Pire","name:uk":"Пірей","int_name":"Piraeus","old_name":"Πειραιεύς","official_name":"Πειραιεύς"},"display_name":"Πειραιάς, Δήμος Πειραιώς, Περιφερειακή Ενότητα Πειραιώς, Περιφέρεια Αττικής, Αποκεντρωμένη Διοίκηση Αττικής, 185 35, Ελλάς","address":{"city":"Πειραιάς","municipality":"Δήμος Πειραιώς","county":"Περιφερειακή Ενότητα Πειραιώς","state_district":"Περιφέρεια Αττικής","ISO3166-2-lvl5":"GR-I","state":"Αποκεντρωμένη Διοίκηση Αττικής","postcode":"185 35","country":"Ελλάς","country_code":"gr"},"population":163688,"osm_type":"node","osm_id":154089041,"type":"city","location":[23.6470593,37.9431594],"bbox":[23.4870593,37.7831594,23.8070593,38.1031594]}
{"name":"Αθήνα","other_names":{"name:af":"Athene","name:am":"አቴና","name:an":"Atenas","name:ar":"أثينا","name:az":"Afina","name:ba":"Афина","name:be":"Афіны","name:bg":"Атина","name:bn":"অ্যাথেন্স","name:bo":"ཨ་ཐེན།","name:br":"Aten","name:bs":"Atina","name:ca":"Atenes","name:co":"Atene","name:cs":"Athény","name:cu":"Аѳинꙑ","name:cv":"Афин","name:cy":"Athen","name:de":"Athen","name:el":"Αθήνα","name:en":"Athens","name:eo":"Ateno","name:es":"Atenas","name:et":"Ateena","name:eu":"Atenas","name:fa":"آتن","name:fi":"Ateena","name:fr":"Athènes","name:fy":"Atene","name:ga":"An Aithin","name:gd":"An Àithne","name:gl":"Atenas","name:gn":"Atena","name:gv":"Yn Atheen","name:he":"אתונה","name:hi":"एथेंस","name:hr":"Atena","name:ht":"Atèn","name:hu":"Athén","name:hy":"Աթենք","name:ia":"Athenas","name:id":"Athena","name:ie":"Athina","name:io":"Athina","name:is":"Aþena","name:it":"Atene","name:ja":"アテネ","name:jv":"Aténa","name:ka":"ათენი","name:kk":"Афина","name:kn":"ಅಥೆನ್ಸ್","name:ko":"아테네","name:ku":"Atîna","name:kv":"Афинъяс","name:kw":"Athína","name:la":"Athenae","name:lb":"Athen","name:li":"Athene","name:ln":"Atenis","name:lt":"Atėnai","name:lv":"Atēnas","name:mi":"Ātene","name:mk":"Атина","name:ml":"ഏതൻസ്‌","name:mn":"Афин","name:mr":"अथेन्स","name:ms":"Athens","name:mt":"Ateni","name:my":"အေသင်မြို့","name:nl":"Athene","name:nn":"Aten","name:no":"Aten","name:oc":"Atenas","name:os":"Афинæтæ","name:pl":"Ateny","name:pt":"Atenas","name:qu":"Athina","name:ro":"Atena","name:ru":"Афины","name:sc":"Atene","name:se":"Athena","name:sh":"Atena","name:sk":"Atény","name:sl":"Atene","name:sq":"Athinë","name:sr":"Атина","name:sv":"Aten","name:sw":"Athens","name:ta":"ஏதென்ஸ்","name:te":"ఏథెన్స్","name:th":"เอเธนส์","name:tk":"Afiny","name:tl":"Atenas","name:tr":"Atina","name:tt":"Афиннар","name:tw":"Athens","name:ug":"ئافېنا","name:uk":"Афіни","name:ur":"ایتھنز","name:uz":"Afina","name:vi":"Athena","name:vo":"Atina","name:wa":"Atene","name:wo":"Aten","name:yi":"אטען","name:yo":"Áténì","name:zh":"雅典","name:zu":"I-Athene","int_name":"Athina","name:ang":"Athēnas","name:arc":"ܐܬܢܘܣ","name:arz":"اتينا","name:ast":"Atenes","name:ceb":"Atenas","name:ckb":"ئەسینا","name:crh":"Atina","name:diq":"Atêna","name:ext":"Atenas","name:frp":"Atèna","name:gag":"Afina","name:gan":"雅典","name:grc":"Ἀθῆναι","name:haw":"‘Akenai","name:hif":"Athens","name:ilo":"Atenas","name:jbo":"atenas","name:kab":"Atena","name:krc":"Афинле","name:lad":"Atina","name:lez":"Афинаяр","name:lij":"Aten","name:lmo":"Atene","name:mdf":"Афитт","name:mwl":"Atenas","name:nah":"Atēna","name:nan":"Athína","name:new":"एथेन्स","name:nov":"Atena","name:pms":"Atene","name:pnb":"ایتھنز","name:pnt":"Αθήνα","name:rue":"Атены","name:sah":"Атина","name:scn":"Atini","name:sco":"Athens","name:stq":"Athene","name:szl":"Atyny","name:udm":"Афины","name:vec":"Atene","name:vep":"Afinad","name:vro":"Ateena","name:war":"Atenas","name:xmf":"ათენი","name:yue":"雅典","name:zea":"Athene","old_name":"Αθήναι","alt_name:cs":"Atény","alt_name:gl":"Αθήνα","alt_name:uk":"Атени","name:simple":"Athens","old_name:ca":"Cetines","name:bat-smg":"Atienā","name:roa-rup":"Athina","name:sr-Latn":"Atina","name:roa-tara":"Atene","name:be-tarask":"Атэны"},"display_name":"Αθήνα, Δήμος Αθηναίων, Περιφερειακή Ενότητα Κεντρικού Τομέα Αθηνών, Περιφέρεια Αττικής, Αποκεντρωμένη Διοίκηση Αττικής, 104 31, Ελλάς","address":{"city":"Αθήνα","municipality":"Δήμος Αθηναίων","county":"Περιφερειακή Ενότητα Κεντρικού Τομέα Αθηνών","state_district":"Περιφέρεια Αττικής","ISO3166-2-lvl5":"GR-I","state":"Αποκεντρωμένη Διοίκηση Αττικής","postcode":"104 31","country":"Ελλάς","country_code":"gr"},"population":3090508,"osm_type":"node","osm_id":441183,"type":"city","location":[23.7283052,37.9839412],"bbox":[23.5683052,37.8239412,23.8883052,38.1439412]}
{"name":"Χαλκίδα","other_names":{"name:el":"Χαλκίδα","name:en":"Chalkida","name:et":"Chalkída","name:fr":"Chalcis","name:hu":"Chalcis","name:lt":"Chalkidė","name:mk":"Халкида","name:ml":"ഖൽകിദ","name:ru":"Халкис","name:sk":"Chalkida","name:sr":"Халкида","name:tr":"Eğriboz","alt_name":"Chalcis","int_name":"Chalkida","name:sr-Latn":"Halkida"},"display_name":"Χαλκίδα, Δήμος Χαλκιδέων, Περιφερειακή Ενότητα Ευβοίας, Περιφέρεια Στερεάς Ελλάδας, Αποκεντρωμένη Διοίκηση Θεσσαλίας - Στερεάς Ελλάδος, 341 09, Ελλάς","address":{"city":"Χαλκίδα","municipality":"Δήμος Χαλκιδέων","county":"Περιφερειακή Ενότητα Ευβοίας","state_district":"Περιφέρεια Στερεάς Ελλάδας","ISO3166-2-lvl5":"GR-H","state":"Αποκεντρωμένη Διοίκηση Θεσσαλίας - Στερεάς Ελλάδος","postcode":"341 09","country":"Ελλάς","country_code":"gr"},"population":59125,"osm_type":"node","osm_id":1907438353,"type":"city","location":[23.5946877,38.4623664],"bbox":[23.4346877,38.3023664,23.7546877,38.6223664]}
{"name":"Βόλος","other_names":{"name:de":"Volos","name:el":"Βόλος","name:en":"Volos","name:et":"Vólos","name:fr":"Volos","name:hr":"Volos","name:hu":"Vólosz","name:ja":"ヴォロス","name:lt":"Volosas","name:mk":"Волос","name:pl":"Wolos","name:ro":"Volos","name:ru":"Волос","name:sr":"Волос","int_name":"Volos","name:sr-Latn":"Volos"},"display_name":"Δήμος Βόλου, Περιφερειακή Ενότητα Μαγνησίας, Περιφέρεια Θεσσαλίας, Αποκεντρωμένη Διοίκηση Θεσσαλίας - Στερεάς Ελλάδος, Ελλάς","address":{"city":"Δήμος Βόλου","county":"Περιφερειακή Ενότητα Μαγνησίας","state_district":"Περιφέρεια Θεσσαλίας","ISO3166-2-lvl5":"GR-E","state":"Αποκεντρωμένη Διοίκηση Θεσσαλίας - Στερεάς Ελλάδος","country":"Ελλάς","country_code":"gr"},"population":82439,"osm_type":"node","osm_id":135531710,"type":"city","location":[22.9401864,39.3624833],"bbox":[22.7801864,39.2024833,23.1001864,39.5224833]}
{"name":"Κως","other_names":{"name:ca":"Cos","name:de":"Kos","name:el":"Κως","name:en":"Kos","name:es":"Cos","name:fr":"Cos","name:it":"Coo","name:ko":"코스섬","name:mk":"Кос","name:pl":"Kos","name:pt":"Cós","name:ro":"Kos","name:ru":"Кос","name:sr":"Кос","name:tr":"İstanköy","int_name":"Kos","name:sr-Latn":"Kos"},"display_name":"Κως, Δήμος Κω, Περιφερειακή Ενότητα Κω, Περιφέρεια Νοτίου Αιγαίου, Αποκεντρωμένη Διοίκηση Αιγαίου, 853 00, Ελλάς","address":{"city":"Κως","municipality":"Δήμος Κω","county":"Περιφερειακή Ενότητα Κω","state_district":"Περιφέρεια Νοτίου Αιγαίου","ISO3166-2-lvl5":"GR-L","state":"Αποκεντρωμένη Διοίκηση Αιγαίου","postcode":"853 00","country":"Ελλάς","country_code":"gr"},"population":19432,"osm_type":"node","osm_id":28490587,"type":"city","location":[27.2866636,36.8940286],"bbox":[27.1266636,36.7340286,27.4466636,37.0540286]}
{"name":"Μυτιλήνη","other_names":{"name:ca":"Mitilene","name:de":"Mytilini","name:el":"Μυτιλήνη","name:en":"Mytilene","name:es":"Mitilene","name:fr":"Mytilène","name:it":"Mitilene","name:lt":"Mitilėnė","name:mk":"Митилена","name:pt":"Mitilene","name:ro":"Mytilene","name:ru":"Митилини","name:sk":"Mytilény","name:tr":"Midilli","int_name":"Mytilene","alt_name:ca":"Mytilene","old_name:ca":"Metellí"},"display_name":"Μυτιλήνη, Δημοτική Ενότητα Μυτιλήνης, Δήμος Μυτιλήνης, Περιφερειακή Ενότητα Λέσβου, Περιφέρεια Βόρειου Αιγαίου, Αποκεντρωμένη Διοίκηση Αιγαίου, 811 00, Ελλάς","address":{"city":"Μυτιλήνη","municipality":"Δήμος Μυτιλήνης","county":"Περιφερειακή Ενότητα Λέσβου","state_district":"Περιφέρεια Βόρειου Αιγαίου","ISO3166-2-lvl5":"GR-K","state":"Αποκεντρωμένη Διοίκηση Αιγαίου","postcode":"811 00","country":"Ελλάς","country_code":"gr"},"population":36163,"osm_type":"node","osm_id":1606160775,"type":"city","location":[26.554788,39.1037355],"bbox":[26.394788,38.9437355,26.714788,39.2637355]}
{"name":"Ρόδος","other_names":{"name:ca":"Rodes","name:cs":"Rhodos","name:de":"Rhodos","name:el":"Ρόδος","name:en":"Rhodes","name:es":"Rodas","name:fi":"Rodos","name:fr":"Rhodes","name:hu":"Rodosz","name:it":"Rodi","name:ja":"ロドス","name:ko":"로도스","name:mk":"Родос","name:nl":"Rhodos","name:pl":"Rodos","name:ro":"Rodos","name:ru":"Родос","name:sk":"Rodos","name:sr":"Родос","name:sv":"Rhodos","name:tr":"Rodos","int_name":"Rodos","old_name":"Rodi","name:sr-Latn":"Rodos"},"display_name":"Ρόδος, Δήμος Ρόδου, Περιφερειακή Ενότητα Ρόδου, Περιφέρεια Νοτίου Αιγαίου, Αποκεντρωμένη Διοίκηση Αιγαίου, 851 00, Ελλάς","address":{"city":"Ρόδος","municipality":"Δήμος Ρόδου","county":"Περιφερειακή Ενότητα Ρόδου","state_district":"Περιφέρεια Νοτίου Αιγαίου","ISO3166-2-lvl5":"GR-L","state":"Αποκεντρωμένη Διοίκηση Αιγαίου","postcode":"851 00","country":"Ελλάς","country_code":"gr"},"population":54000,"osm_type":"node","osm_id":126244310,"type":"city","location":[28.2233083,36.4379874],"bbox":[28.0633083,36.2779874,28.3833083,36.5979874]}
{"name":"Κατερίνη","other_names":{"name:bg":"Катерини","name:ca":"Katerini","name:de":"Katerini","name:el":"Κατερίνη","name:en":"Katerini","name:et":"Kateríni","name:fr":"Katerini","name:hr":"Katerini","name:hu":"Kateríni","name:lt":"Katerinė","name:mk":"Катерина","name:ro":"Katerini","name:ru":"Катерини","name:sr":"Катерини","name:tr":"Katerin","alt_name":"Αικατερίνη","int_name":"Katerini","name:sr-Latn":"Katerini"},"display_name":"Δήμος Κατερίνης, Περιφερειακή Ενότητα Πιερίας, Περιφέρεια Κεντρικής Μακεδονίας, Αποκεντρωμένη Διοίκηση Μακεδονίας - Θράκης, 601 00, Ελλάς","address":{"city":"Δήμος Κατερίνης","county":"Περιφερειακή Ενότητα Πιερίας","state_district":"Περιφέρεια Κεντρικής Μακεδονίας","ISO3166-2-lvl5":"GR-B","state":"Αποκεντρωμένη Διοίκηση Μακεδονίας - Θράκης","postcode":"601 00","country":"Ελλάς","country_code":"gr"},"population":56000,"osm_type":"node","osm_id":57553013,"type":"city","location":[22.5087618,40.2713616],"bbox":[22.3487618,40.1113616,22.6687618,40.4313616]}
{"name":"Θεσσαλονίκη","other_names":{"name:ar":"سالونيك","name:bg":"Солун","name:bs":"Solun","name:ca":"Tessalònica","name:cs":"Soluň","name:de":"Thessaloniki","name:el":"Θεσσαλονίκη","name:en":"Thessaloniki","name:eo":"Tesaloniko","name:es":"Salónica","name:et":"Thessaloníki","name:eu":"Tesalonika","name:fi":"Thessaloniki","name:fr":"Thessalonique","name:he":"סלוניקי","name:hr":"Solun","name:hu":"Theszaloníki","name:is":"Þessaloniki","name:it":"Salonicco","name:ja":"テッサロニキ","name:kn":"ತೆಸಲೋನಿಕಿ","name:ku":"Tesalonîkî","name:la":"Thessalonika","name:lt":"Salonikai","name:lv":"Saloniki","name:mk":"Солун","name:ml":"തെസ്സലോനിക്ക","name:nl":"Thessaloniki","name:pl":"Saloniki","name:pt":"Salónica","name:ro":"Salonic","name:ru":"Салоники","name:sk":"Solún","name:sl":"Solun","name:sq":"Selanik","name:sr":"Солун","name:tr":"Selanik","name:tt":"Сәләник","name:zh":"塞薩洛尼基","int_name":"Thessaloniki","alt_name:ca":"Salònica","alt_name:eo":"Saloniko","alt_name:es":"Tesalónica","alt_name:ru":"Фессалоники;Солунь","name:sr-Latn":"Solun"},"display_name":"Θεσσαλονίκη, Δημοτική Ενότητα Θεσαλονίκης, Δήμος Θεσσαλονίκης, Περιφερειακή Ενότητα Θεσσαλονίκης, Περιφέρεια Κεντρικής Μακεδονίας, Αποκεντρωμένη Διοίκηση Μακεδονίας - Θράκης, 546 26, Ελλάς","address":{"city":"Θεσσαλονίκη","municipality":"Δήμος Θεσσαλονίκης","county":"Περιφερειακή Ενότητα Θεσσαλονίκης","state_district":"Περιφέρεια Κεντρικής Μακεδονίας","ISO3166-2-lvl5":"GR-B","state":"Αποκεντρωμένη Διοίκηση Μακεδονίας - Θράκης","postcode":"546 26","country":"Ελλάς","country_code":"gr"},"population":790824,"osm_type":"node","osm_id":57554537,"type":"city","location":[22.9352716,40.6403167],"bbox":[22.7752716,40.4803167,23.0952716,40.8003167]}
{"name":"Κιλκίς","other_names":{"name:bg":"Кукуш","name:ca":"Kilkís","name:de":"Kilkis","name:el":"Κιλκίς","name:en":"Kilkis","name:et":"Kilkís","name:eu":"Kilkis","name:fr":"Kilkís","name:hu":"Kilkísz","name:it":"Kilkis","name:la":"Cilcis","name:mk":"Кукуш","name:pl":"Kilkis","name:ro":"Kilkis","name:ru":"Килкис","name:sr":"Кукуш","name:tr":"Kılkış","int_name":"Kilkis"},"display_name":"Κιλκίς, Δήμος Κιλκίς, Περιφερειακή Ενότητα Κιλκίς, Περιφέρεια Κεντρικής Μακεδονίας, Αποκεντρωμένη Διοίκηση Μακεδονίας - Θράκης, 611 00, Ελλάς","address":{"city":"Κιλκίς","municipality":"Δήμος Κιλκίς","county":"Περιφερειακή Ενότητα Κιλκίς","state_district":"Περιφέρεια Κεντρικής Μακεδονίας","ISO3166-2-lvl5":"GR-B","state":"Αποκεντρωμένη Διοίκηση Μακεδονίας - Θράκης","postcode":"611 00","country":"Ελλάς","country_code":"gr"},"population":17430,"osm_type":"node","osm_id":134237444,"type":"city","location":[22.8741455,40.9935874],"bbox":[22.7141455,40.8335874,23.0341455,41.1535874]}
{"name":"Σέρρες","other_names":{"name:bg":"Сяр","name:ca":"Serres","name:de":"Serres","name:el":"Σέρρες","name:en":"Serres","name:es":"Serres","name:et":"Sérres","name:eu":"Serres","name:fr":"Serrès","name:hu":"Széresz","name:lt":"Serės","name:mk":"Сер","name:ro":"Serres","name:ru":"Сере","name:sr":"Сер","name:sv":"Serrai","name:tr":"Serez","int_name":"Serres","old_name":"Serez","alt_name:tr":"Siroz"},"display_name":"Σέρρες, Δήμος Σερρών, Περιφερειακή Ενότητα Σερρών, Περιφέρεια Κεντρικής Μακεδονίας, Αποκεντρωμένη Διοίκηση Μακεδονίας - Θράκης, 621 00, Ελλάς","address":{"city":"Σέρρες","municipality":"Δήμος Σερρών","county":"Περιφερειακή Ενότητα Σερρών","state_district":"Περιφέρεια Κεντρικής Μακεδονίας","ISO3166-2-lvl5":"GR-B","state":"Αποκεντρωμένη Διοίκηση Μακεδονίας - Θράκης","postcode":"621 00","country":"Ελλάς","country_code":"gr"},"population":56000,"osm_type":"node","osm_id":136904436,"type":"city","location":[23.5498031,41.0910711],"bbox":[23.3898031,40.9310711,23.7098031,41.2510711]}
{"name":"Καβάλα","other_names":{"name:bg":"Кавала","name:ca":"Kavala","name:de":"Kavala","name:el":"Καβάλα","name:en":"Kavala","name:es":"Kavala","name:et":"Kavála","name:fr":"Kavala","name:hu":"Kavála","name:ja":"カヴァラ","name:la":"Cabala","name:lt":"Kavala","name:mk":"Кавала","name:nl":"Kavála","name:pl":"Kawala","name:pt":"Cavala","name:ro":"Kavala","name:ru":"Кавала","name:sr":"Кавала","name:sv":"Kavála","name:tr":"Kavala","int_name":"Kavala","old_name":"Neapolis","alt_name:mk":"Морунец","name:sr-Latn":"Kavala"},"display_name":"Καβάλα, Δήμος Καβάλας, Περιφερειακή Ενότητα Καβάλας, Περιφέρεια Ανατολικής Μακεδονίας και Θράκης, Αποκεντρωμένη Διοίκηση Μακεδονίας - Θράκης, 653 02, Ελλάς","address":{"city":"Καβάλα","municipality":"Δήμος Καβάλας","county":"Περιφερειακή Ενότητα Καβάλας","state_district":"Περιφέρεια Ανατολικής Μακεδονίας και Θράκης","ISO3166-2-lvl5":"GR-A","state":"Αποκεντρωμένη Διοίκηση Μακεδονίας - Θράκης","postcode":"653 02","country":"Ελλάς","country_code":"gr"},"population":54027,"osm_type":"node","osm_id":137704920,"type":"city","location":[24.4122766,40.9369224],"bbox":[24.2522766,40.7769224,24.5722766,41.0969224]}
{"name":"Δράμα","other_names":{"name:bg":"Драма","name:ca":"Drama","name:de":"Drama","name:el":"Δράμα","name:en":"Drama","name:et":"Dráma","name:eu":"Drama","name:fr":"Drama","name:hu":"Dráma","name:mk":"Драма","name:ru":"Драма","name:sr":"Драма","name:tr":"Drama","name:sr-Latn":"Drama"},"display_name":"Δράμα, Δημοτική Ενότητα Δράμας, Δήμος Δράμας, Περιφερειακή Ενότητα Δράμας, Περιφέρεια Ανατολικής Μακεδονίας και Θράκης, Αποκεντρωμένη Διοίκηση Μακεδονίας - Θράκης, 661 00, Ελλάς","address":{"city":"Δράμα","municipality":"Δήμος Δράμας","county":"Περιφερειακή Ενότητα Δράμας","state_district":"Περιφέρεια Ανατολικής Μακεδονίας και Θράκης","ISO3166-2-lvl5":"GR-A","state":"Αποκεντρωμένη Διοίκηση Μακεδονίας - Θράκης","postcode":"661 00","country":"Ελλάς","country_code":"gr"},"population":42501,"osm_type":"node","osm_id":164626837,"type":"city","location":[24.1468286,41.1499443],"bbox":[23.9868286,40.9899443,24.3068286,41.3099443]}
{"name":"Ξάνθη","other_names":{"name:bg":"Ксанти","name:ca":"Xanthi","name:de":"Xanthi","name:el":"Ξάνθη","name:en":"Xanthi","name:es":"Xanti","name:et":"Xánthi","name:fr":"Xanthi","name:hu":"Xánthi","name:la":"Xanthe","name:lt":"Ksantė","name:mk":"Скеча","name:pl":"Ksanti","name:ro":"Xanthi","name:ru":"Ксанти","name:sr":"Ксанти","name:tr":"İskeçe","int_name":"Xanthi","old_name":"İskeçe","alt_name:mk":"Царево","name:sr-Latn":"Ksanti"},"display_name":"Ξάνθη, Δημοτική Ενότητα Ξάνθης, Δήμος Ξάνθης, Περιφερειακή Ενότητα Ξάνθης, Περιφέρεια Ανατολικής Μακεδονίας και Θράκης, Αποκεντρωμένη Διοίκηση Μακεδονίας - Θράκης, 671 00, Ελλάς","address":{"city":"Ξάνθη","municipality":"Δήμος Ξάνθης","county":"Περιφερειακή Ενότητα Ξάνθης","state_district":"Περιφέρεια Ανατολικής Μακεδονίας και Θράκης","ISO3166-2-lvl5":"GR-A","state":"Αποκεντρωμένη Διοίκηση Μακεδονίας - Θράκης","postcode":"671 00","country":"Ελλάς","country_code":"gr"},"population":52000,"osm_type":"node","osm_id":137705481,"type":"city","location":[24.8862688,41.1380289],"bbox":[24.7262688,40.9780289,25.0462688,41.2980289]}
{"name":"Κομοτηνή","other_names":{"name:bg":"Gjumjurdžina","name:de":"Komotini","name:el":"Κομοτηνή","name:en":"Komotini","name:mk":"Ѓумурџина","name:ro":"Komotini","name:ru":"Комотини","name:tr":"Gümülcine","name:uk":"Комотіні"},"display_name":"Κομοτηνή, Δήμος Κομοτηνής, Περιφερειακή Ενότητα Ροδόπης, Περιφέρεια Ανατολικής Μακεδονίας και Θράκης, Αποκεντρωμένη Διοίκηση Μακεδονίας - Θράκης, 691 33, Ελλάς","address":{"city":"Κομοτηνή","municipality":"Δήμος Κομοτηνής","county":"Περιφερειακή Ενότητα Ροδόπης","state_district":"Περιφέρεια Ανατολικής Μακεδονίας και Θράκης","ISO3166-2-lvl5":"GR-A","state":"Αποκεντρωμένη Διοίκηση Μακεδονίας - Θράκης","postcode":"691 33","country":"Ελλάς","country_code":"gr"},"population":50,"osm_type":"node","osm_id":10089762437,"type":"city","location":[25.4035708,41.1182],"bbox":[25.2435708,40.9582,25.5635708,41.2782]}
{"name":"Αλεξανδρούπολη","other_names":{"name:bg":"Дедеагач","name:cs":"Alexandrupoli","name:de":"Alexandroupoli","name:el":"Αλεξανδρούπολη","name:en":"Alexandroupoli","name:es":"Alejandrópolis","name:et":"Alexandroúpoli","name:fr":"Alexandroúpoli","name:hu":"Alexandrúpoli","name:it":"Alessandropoli","name:la":"Alexandropolis","name:lt":"Aleksandrupolis","name:mk":"Дедеагач","name:no":"Alexandroúpoli","name:pl":"Aleksandropolis","name:pt":"Alexandrópolis","name:ru":"Александруполис","name:sl":"Alexandroupoli","name:sr":"Александрополис","name:tr":"Dedeağaç","int_name":"Alexandroupoli","old_name":"Feredjik","name:sr-Latn":"Aleksandropolis"},"display_name":"Αλεξανδρούπολη, Δήμος Αλεξανδρούπολης, Περιφερειακή Ενότητα Έβρου, Περιφέρεια Ανατολικής Μακεδονίας και Θράκης, Αποκεντρωμένη Διοίκηση Μακεδονίας - Θράκης, 681 00, Ελλάς","address":{"city":"Αλεξανδρούπολη","municipality":"Δήμος Αλεξανδρούπολης","county":"Περιφερειακή Ενότητα Έβρου","state_district":"Περιφέρεια Ανατολικής Μακεδονίας και Θράκης","ISO3166-2-lvl5":"GR-A","state":"Αποκεντρωμένη Διοίκηση Μακεδονίας - Θράκης","postcode":"681 00","country":"Ελλάς","country_code":"gr"},"population":53000,"osm_type":"node","osm_id":139260064,"type":"city","location":[25.8778814,40.845666],"bbox":[25.7178814,40.685666,26.0378814,41.005666]}